{
  "type": "FeatureCollection",
  "features": [
    {
      "type": "Feature",
      "properties": {
        "norad_id": 30264,
        "name": "FENGYUN 1C DEB",
        "group": "fengyun-1c-debris",
        "lat": -66.67168638638555,
        "lon": -158.13020301435284,
        "alt_km": 810.6221897914429,
        "timestamp": "2025-12-14T05:42:18.735068+00:00",
        "meta_object_name": "FENGYUN 1C DEB",
        "meta_object_id": "1999-025XZ",
        "meta_epoch": "2025-12-13T15:36:36.980064",
        "meta_mean_motion": 14.07642595,
        "meta_eccentricity": 0.01071869,
        "meta_inclination": 98.9702,
        "meta_ra_of_asc_node": 42.7717,
        "meta_arg_of_pericenter": 284.8151,
        "meta_mean_anomaly": 229.7604,
        "meta_ephemeris_type": 0,
        "meta_classification_type": "U",
        "meta_norad_cat_id": 30264,
        "meta_element_set_no": 999,
        "meta_rev_at_epoch": 96570,
        "meta_bstar": 0.0014603692,
        "meta_mean_motion_dot": 2.555e-05,
        "meta_mean_motion_ddot": 0,
        "tle_line1": "1 30264U 99025XZ  25347.65042801  .00002555  00000+0  14604-2 0  9990",
        "tle_line2": "2 30264  98.9702  42.7717 0107186 284.8151 229.7604 14.07642595965702"
      },
      "geometry": {
        "type": "Point",
        "coordinates": [
          -158.13020301435284,
          -66.67168638638555
        ]
      }
    },
    {
      "type": "Feature",
      "properties": {
        "norad_id": 30265,
        "name": "FENGYUN 1C DEB",
        "group": "fengyun-1c-debris",
        "lat": -3.9436266732584904,
        "lon": -83.17637347896283,
        "alt_km": 720.8370077949485,
        "timestamp": "2025-12-14T05:42:18.735079+00:00",
        "meta_object_name": "FENGYUN 1C DEB",
        "meta_object_id": "1999-025YA",
        "meta_epoch": "2025-12-13T06:04:56.294112",
        "meta_mean_motion": 14.58647023,
        "meta_eccentricity": 0.00282892,
        "meta_inclination": 98.6638,
        "meta_ra_of_asc_node": 96.4001,
        "meta_arg_of_pericenter": 11.8069,
        "meta_mean_anomaly": 46.3701,
        "meta_ephemeris_type": 0,
        "meta_classification_type": "U",
        "meta_norad_cat_id": 30265,
        "meta_element_set_no": 999,
        "meta_rev_at_epoch": 98409,
        "meta_bstar": 0.0040396856,
        "meta_mean_motion_dot": 0.00018924,
        "meta_mean_motion_ddot": 0,
        "tle_line1": "1 30265U 99025YA  25347.25342933  .00018924  00000+0  40397-2 0  9991",
        "tle_line2": "2 30265  98.6638  96.4001 0028289  11.8069  46.3701 14.58647023984093"
      },
      "geometry": {
        "type": "Point",
        "coordinates": [
          -83.17637347896283,
          -3.9436266732584904
        ]
      }
    },
    {
      "type": "Feature",
      "properties": {
        "norad_id": 30266,
        "name": "FENGYUN 1C DEB",
        "group": "fengyun-1c-debris",
        "lat": -37.73397135850989,
        "lon": 59.54823210826892,
        "alt_km": 858.1970781342707,
        "timestamp": "2025-12-14T05:42:18.735089+00:00",
        "meta_object_name": "FENGYUN 1C DEB",
        "meta_object_id": "1999-025YB",
        "meta_epoch": "2025-12-13T16:52:49.840896",
        "meta_mean_motion": 14.15089192,
        "meta_eccentricity": 0.00825887,
        "meta_inclination": 99.043,
        "meta_ra_of_asc_node": 51.9278,
        "meta_arg_of_pericenter": 63.3003,
        "meta_mean_anomaly": 58.7314,
        "meta_ephemeris_type": 0,
        "meta_classification_type": "U",
        "meta_norad_cat_id": 30266,
        "meta_element_set_no": 999,
        "meta_rev_at_epoch": 96803,
        "meta_bstar": 0.0016757076,
        "meta_mean_motion_dot": 3.314e-05,
        "meta_mean_motion_ddot": 0,
        "tle_line1": "1 30266U 99025YB  25347.70335464  .00003314  00000+0  16757-2 0  9993",
        "tle_line2": "2 30266  99.0430  51.9278 0082588  63.3003  58.7314 14.15089192968036"
      },
      "geometry": {
        "type": "Point",
        "coordinates": [
          59.54823210826892,
          -37.73397135850989
        ]
      }
    },
    {
      "type": "Feature",
      "properties": {
        "norad_id": 30267,
        "name": "FENGYUN 1C DEB",
        "group": "fengyun-1c-debris",
        "lat": -74.19652692316565,
        "lon": 92.80745100957435,
        "alt_km": 789.9136345068309,
        "timestamp": "2025-12-14T05:42:18.735099+00:00",
        "meta_object_name": "FENGYUN 1C DEB",
        "meta_object_id": "1999-025YC",
        "meta_epoch": "2025-12-13T11:30:37.625760",
        "meta_mean_motion": 14.23615714,
        "meta_eccentricity": 0.00590975,
        "meta_inclination": 98.8499,
        "meta_ra_of_asc_node": 58.6466,
        "meta_arg_of_pericenter": 240.9648,
        "meta_mean_anomaly": 118.5601,
        "meta_ephemeris_type": 0,
        "meta_classification_type": "U",
        "meta_norad_cat_id": 30267,
        "meta_element_set_no": 999,
        "meta_rev_at_epoch": 97305,
        "meta_bstar": 0.0024476831,
        "meta_mean_motion_dot": 5.638e-05,
        "meta_mean_motion_ddot": 0,
        "tle_line1": "1 30267U 99025YC  25347.47960215  .00005638  00000+0  24477-2 0  9995",
        "tle_line2": "2 30267  98.8499  58.6466 0059097 240.9648 118.5601 14.23615714973055"
      },
      "geometry": {
        "type": "Point",
        "coordinates": [
          92.80745100957435,
          -74.19652692316565
        ]
      }
    },
    {
      "type": "Feature",
      "properties": {
        "norad_id": 30270,
        "name": "FENGYUN 1C DEB",
        "group": "fengyun-1c-debris",
        "lat": -25.171069092542133,
        "lon": 177.78629879853057,
        "alt_km": 857.1087347104149,
        "timestamp": "2025-12-14T05:42:18.735109+00:00",
        "meta_object_name": "FENGYUN 1C DEB",
        "meta_object_id": "1999-025YF",
        "meta_epoch": "2025-12-13T15:42:02.103264",
        "meta_mean_motion": 14.11271553,
        "meta_eccentricity": 0.00074672,
        "meta_inclination": 98.7023,
        "meta_ra_of_asc_node": 1.3483,
        "meta_arg_of_pericenter": 156.6791,
        "meta_mean_anomaly": 325.6386,
        "meta_ephemeris_type": 0,
        "meta_classification_type": "U",
        "meta_norad_cat_id": 30270,
        "meta_element_set_no": 999,
        "meta_rev_at_epoch": 97374,
        "meta_bstar": 0.00017752703,
        "meta_mean_motion_dot": 2.78e-06,
        "meta_mean_motion_ddot": 0,
        "tle_line1": "1 30270U 99025YF  25347.65419101  .00000278  00000+0  17753-3 0  9997",
        "tle_line2": "2 30270  98.7023   1.3483 0007467 156.6791 325.6386 14.11271553973744"
      },
      "geometry": {
        "type": "Point",
        "coordinates": [
          177.78629879853057,
          -25.171069092542133
        ]
      }
    },
    {
      "type": "Feature",
      "properties": {
        "norad_id": 30272,
        "name": "FENGYUN 1C DEB",
        "group": "fengyun-1c-debris",
        "lat": 79.52197843477764,
        "lon": -66.14781834087886,
        "alt_km": 799.1927531426727,
        "timestamp": "2025-12-14T05:42:18.735119+00:00",
        "meta_object_name": "FENGYUN 1C DEB",
        "meta_object_id": "1999-025YH",
        "meta_epoch": "2025-12-13T15:40:43.188096",
        "meta_mean_motion": 14.14717673,
        "meta_eccentricity": 0.00508996,
        "meta_inclination": 98.9009,
        "meta_ra_of_asc_node": 55.3448,
        "meta_arg_of_pericenter": 101.2885,
        "meta_mean_anomaly": 259.4014,
        "meta_ephemeris_type": 0,
        "meta_classification_type": "U",
        "meta_norad_cat_id": 30272,
        "meta_element_set_no": 999,
        "meta_rev_at_epoch": 96869,
        "meta_bstar": 0.0014327188,
        "meta_mean_motion_dot": 2.75e-05,
        "meta_mean_motion_ddot": 0,
        "tle_line1": "1 30272U 99025YH  25347.65327764  .00002750  00000+0  14327-2 0  9992",
        "tle_line2": "2 30272  98.9009  55.3448 0050899 101.2885 259.4014 14.14717673968690"
      },
      "geometry": {
        "type": "Point",
        "coordinates": [
          -66.14781834087886,
          79.52197843477764
        ]
      }
    },
    {
      "type": "Feature",
      "properties": {
        "norad_id": 30273,
        "name": "FENGYUN 1C DEB",
        "group": "fengyun-1c-debris",
        "lat": 8.245083709888524,
        "lon": 1.4643489303312591,
        "alt_km": 910.1453938739924,
        "timestamp": "2025-12-14T05:42:18.735129+00:00",
        "meta_object_name": "FENGYUN 1C DEB",
        "meta_object_id": "1999-025YJ",
        "meta_epoch": "2025-12-12T21:42:21.056832",
        "meta_mean_motion": 14.02661002,
        "meta_eccentricity": 0.00604025,
        "meta_inclination": 98.8408,
        "meta_ra_of_asc_node": 1.4625,
        "meta_arg_of_pericenter": 249.0207,
        "meta_mean_anomaly": 229.9309,
        "meta_ephemeris_type": 0,
        "meta_classification_type": "U",
        "meta_norad_cat_id": 30273,
        "meta_element_set_no": 999,
        "meta_rev_at_epoch": 96531,
        "meta_bstar": 0.0006679395,
        "meta_mean_motion_dot": 1.004e-05,
        "meta_mean_motion_ddot": 0,
        "tle_line1": "1 30273U 99025YJ  25346.90441038  .00001004  00000+0  66794-3 0  9998",
        "tle_line2": "2 30273  98.8408   1.4625 0060402 249.0207 229.9309 14.02661002965318"
      },
      "geometry": {
        "type": "Point",
        "coordinates": [
          1.4643489303312591,
          8.245083709888524
        ]
      }
    }
  ]
}